CCSDS_OMM_VERS,COMMENT,CREATION_DATE,ORIGINATOR,OBJECT_NAME,OBJECT_ID,CENTER_NAME,REF_FRAME,TIME_SYSTEM,MEAN_ELEMENT_THEORY,EPOCH,MEAN_MOTION,ECCENTRICITY,INCLINATION,RA_OF_ASC_NODE,ARG_OF_PERICENTER,MEAN_ANOMALY,EPHEMERIS_TYPE,CLASSIFICATION_TYPE,NORAD_CAT_ID,ELEMENT_SET_NO,REV_AT_EPOCH,BSTAR,MEAN_MOTION_DOT,MEAN_MOTION_DDOT,SEMIMAJOR_AXIS,PERIOD,APOAPSIS,PERIAPSIS,OBJECT_TYPE,RCS_SIZE,COUNTRY_CODE,LAUNCH_DATE,SITE,DECAY_DATE,FILE,GP_ID,TLE_LINE0,TLE_LINE1,TLE_LINE2,NORAD_KEY,JCAT,DeepCat,Satcat,Piece,Active,Type,Name,LDate,Parent,Owner,State,SDate,ExpandedStatus,DDate,ODate,Period,Perigee,PF,Apogee,AF,Inc,IF,OpOrbit,SATCAT_KEY,DENSITY_SCORE
3.0,GENERATED VIA SPACE-TRACK.ORG API,2026-05-06T14:46:56,18 SPCS,SES 14,2018-012B,EARTH,TEME,UTC,SGP4,2026-05-06T11:12:13.737024,1.00268663,0.000106,0.0321,44.8706,3.7746,296.2477,0,U,43175,999,660,0.0,-2.71e-06,0.0,42165.607,1436.142,35791.942,35783.003,PAYLOAD,LARGE,SES,2018-01-25,FRGUI,,5177192,322298771,0 SES 14,1 43175U 18012B   26126.46682566 -.00000271  00000-0  00000+0 0  9992,2 43175   0.0321  44.8706 0001060   3.7746 296.2477  1.00268663  6602,43175,S43175,-,43175,2018-012B,P,P,SES-14,2018 Jan 25,S43177,SESBR,BR,2018 Jan 25 2247,In Earth orbit,-,2026 May  5 ,1436.108,35781, ,35791, ,0.03, ,GEO/S,43175,2.1724702424738314
3.0,GENERATED VIA SPACE-TRACK.ORG API,2026-05-06T14:46:56,18 SPCS,SBS 4,1984-093B,EARTH,TEME,UTC,SGP4,2026-05-06T06:21:34.677216,0.98764373,0.0007799,13.5919,342.0923,103.7837,246.9838,0,U,15235,999,4556,0.0,-1.39e-06,0.0,42592.68,1458.016,36247.763,36181.327,PAYLOAD,LARGE,US,1984-08-30,AFETR,,5177273,322300776,0 SBS 4,1 15235U 84093B   26126.26498469 -.00000139  00000-0  00000+0 0  9998,2 15235  13.5919 342.0923 0007799 103.7837 246.9838  0.98764373 45567,15235,S15235,-,15235,1984-093B,P,P ---S-,HGS-5,1984 Aug 30,S15245,SESINTU,US,1984 Aug 30 2128,In Earth orbit,-,2026 May  5 ,1458.021,36181, ,36247, ,13.59, ,GEO/ID,15235,2.1749284756948217
3.0,GENERATED VIA SPACE-TRACK.ORG API,2026-05-06T02:32:52,18 SPCS,AMC-3 (GE-3),1997-050A,EARTH,TEME,UTC,SGP4,2026-05-05T17:58:30.212256,1.00271302,0.0003232,8.0429,64.5634,339.846,16.8361,0,U,24936,999,5200,0.0,-2.54e-06,0.0,42164.867,1436.104,35800.36,35773.105,PAYLOAD,LARGE,SES,1997-09-04,AFETR,,5176277,322216542,0 AMC-3 (GE-3),1 24936U 97050A   26125.74896079 -.00000254  00000-0  00000-0 0  9993,2 24936   8.0429  64.5634 0003232 339.8460  16.8361  1.00271302 52008,24936,S24936,-,24936,1997-050A,P,P,AMC 3,1997 Sep  4,S24937,SESSAP,US,1997 Sep  4 1233?,In Earth orbit,-,2026 May  5 ,1436.101,35773, ,35800, ,8.04, ,GEO/I,24936,2.1800632537121807
3.0,GENERATED VIA SPACE-TRACK.ORG API,2026-05-06T14:56:52,18 SPCS,ASIASTAR,2000-016A,EARTH,TEME,UTC,SGP4,2026-05-06T11:36:54.084384,1.00270179,0.00053,9.0343,58.5947,354.0083,90.9723,0,U,26107,999,9550,0.0,-3.25e-06,0.0,42165.182,1436.12,35809.395,35764.7,PAYLOAD,LARGE,US,2000-03-21,FRGUI,,5177583,322307221,0 ASIASTAR,1 26107U 00016A   26126.48395931 -.00000325  00000-0  00000+0 0  9992,2 26107   9.0343  58.5947 0005300 354.0083  90.9723  1.00270179 95502,26107,S26107,-,26107,2000-016A,P,P,Spectrum 1,2000 Mar 21,S26109,SILK,CYM,2000 Mar 21 2355,In Earth orbit,-,2026 May  4 ,1436.106,35764, ,35809, ,9.03, ,GEO/I,26107,2.1808476656470908
3.0,GENERATED VIA SPACE-TRACK.ORG API,2026-05-06T10:08:52,18 SPCS,YURI 2A (BS-2A),1984-005A,EARTH,TEME,UTC,SGP4,2026-05-06T03:06:40.279104,0.99049131,0.00126115,11.1195,324.9319,219.9799,135.8837,0,U,14659,999,11789,0.0,5.6e-07,0.0,42511.007,1453.824,36186.485,36079.259,PAYLOAD,LARGE,JPN,1984-01-23,TNSTA,,5176958,322262322,0 YURI 2A (BS-2A),1 14659U 84005A   26126.12963286  .00000056  00000-0  00000-0 0  9997,2 14659  11.1195 324.9319 0012612 219.9799 135.8837  0.99049131117891,14659,S14659,-,14659,1984-005A,P,P,Yuri 2A,1984 Jan 23,S14665,JAXA,J,1984 Jan 23 0825,In Earth orbit,-,2026 May  5 ,1453.829,36079, ,36186, ,11.12, ,GEO/ID,14659,2.180886596755608
3.0,GENERATED VIA SPACE-TRACK.ORG API,2026-05-06T14:56:52,18 SPCS,GALAXY 15,2005-041A,EARTH,TEME,UTC,SGP4,2026-05-06T06:16:42.644352,0.98942898,0.0013783,3.4298,77.7095,142.6862,94.2196,0,U,28884,999,7502,0.0,-1.79e-06,0.0,42541.431,1455.385,36221.93,36104.661,PAYLOAD,LARGE,ITSO,2005-10-13,FRGUI,,5177640,322309500,0 GALAXY 15,1 28884U 05041A   26126.26160468 -.00000179  00000-0  00000+0 0  9997,2 28884   3.4298  77.7095 0013783 142.6862  94.2196  0.98942898 75026,28884,S28884,-,28884,2005-041A,P,P,Galaxy 15,2005 Oct 13,S28886,SESINTU,US,2005 Oct 13 2309,In Earth orbit,-,2026 May  5 ,1455.387,36104, ,36221, ,3.43, ,GEO/ID,28884,2.18134620205228
3.0,GENERATED VIA SPACE-TRACK.ORG API,2026-05-06T14:46:56,18 SPCS,LUCH (OLYMP),2014-058A,EARTH,TEME,UTC,SGP4,2026-05-06T11:07:36.679872,0.99113203,8.31e-05,1.7864,83.1913,261.1223,343.5913,0,U,40258,999,4055,0.0,-1.54e-06,0.0,42492.684,1452.884,36118.08,36111.018,PAYLOAD,LARGE,CIS,2014-09-27,TTMTR,,5177154,322297771,0 LUCH (OLYMP),1 40258U 14058A   26126.46361898 -.00000154  00000-0  00000+0 0  9999,2 40258   1.7864  83.1913 0000831 261.1223 343.5913  0.99113203 40551,40258,S40258,-,40258,2014-058A,P,P,Luch,2014 Sep 27,S40259,FSB,RU,2014 Sep 28 0526,In Earth orbit,-,2026 May  5 ,1452.876,36110, ,36118, ,1.78, ,GEO/D,40258,2.1820880882906994
3.0,GENERATED VIA SPACE-TRACK.ORG API,2026-05-06T14:46:56,18 SPCS,COSMOS 1738,1986-027A,EARTH,TEME,UTC,SGP4,2026-05-06T07:58:23.310336,1.00265895,0.0012497,10.3313,318.0914,138.7318,240.5203,0,U,16667,999,14693,0.0,-6.9e-07,0.0,42166.383,1436.181,35840.944,35735.553,PAYLOAD,LARGE,CIS,1986-04-04,TTMTR,,5177292,322301028,0 COSMOS 1738,1 16667U 86027A   26126.33221424 -.00000069  00000-0  00000+0 0  9992,2 16667  10.3313 318.0914 0012497 138.7318 240.5203  1.00265895146934,16667,S16667,-,16667,1986-027A,P,P,Kosmos-1738,1986 Apr  4,S16676,VVKOV,SU,1986 Apr  4 1032?,In Earth orbit,-,2026 May  5 ,1436.182,35735, ,35840, ,10.33, ,GEO/I,16667,2.1835227637754415
3.0,GENERATED VIA SPACE-TRACK.ORG API,2026-05-06T14:56:52,18 SPCS,ARABSAT 1D (ANIK D2),1984-113B,EARTH,TEME,UTC,SGP4,2026-05-06T10:21:11.322720,0.98908535,0.0026673,13.6179,341.9624,26.6528,144.1204,0,U,15383,999,11443,0.0,-2.59e-06,0.0,42551.283,1455.891,36286.645,36059.651,PAYLOAD,LARGE,AB,1984-11-08,AFETR,,5177369,322301978,0 ARABSAT 1D (ANIK D2),1 15383U 84113B   26126.43138105 -.00000259  00000-0  00000+0 0  9995,2 15383  13.6179 341.9624 0026673  26.6528 144.1204  0.98908535114437,15383,S15383,-,15383,1984-113B,P,P ---S-,Arabsat 1D,1984 Nov  8,S15387,ARAB,I-ARAB,1984 Nov  9 2152,In Earth orbit,-,2026 May  4 ,1455.882,36059, ,36286, ,13.62, ,GEO/ID,15383,2.1836106209445747
3.0,GENERATED VIA SPACE-TRACK.ORG API,2026-05-06T14:46:56,18 SPCS,EUTE 7 WEST A (AB 7),2011-051A,EARTH,TEME,UTC,SGP4,2026-05-06T09:41:00.177792,1.00273008,0.0004259,0.0981,47.0027,358.5853,316.6247,0,U,37816,999,5345,0.0,-5.2e-07,0.0,42164.389,1436.079,35804.212,35768.296,PAYLOAD,LARGE,EUTE,2011-09-24,SEAL,,5177120,322296313,0 EUTE 7 WEST A (AB 7),1 37816U 11051A   26126.40347428 -.00000052  00000-0  00000+0 0  9999,2 37816   0.0981  47.0027 0004259 358.5853 316.6247  1.00273008 53459,37816,S37816,-,37816,2011-051A,P,P,EUTELSAT 7 WEST A,2011 Sep 24,S37817,EUTSA,F,2011 Sep 24 2125,In Earth orbit,-,2026 May  5 ,1436.085,35772, ,35800, ,0.1, ,GEO/S,37816,2.1851790644693403
3.0,GENERATED VIA SPACE-TRACK.ORG API,2026-05-06T15:06:46,18 SPCS,STAR ONE C1,2007-056A,EARTH,TEME,UTC,SGP4,2026-05-06T08:08:15.991008,0.9906938,0.0011676,4.6515,76.3257,209.5641,232.6338,0,U,32293,999,1497,0.0,-1.93e-06,0.0,42505.214,1453.527,36176.709,36077.45,PAYLOAD,LARGE,BRAZ,2007-11-14,FRGUI,,5177787,322312629,0 STAR ONE C1,1 32293U 07056A   26126.33907397 -.00000193  00000-0  00000+0 0  9998,2 32293   4.6515  76.3257 0011676 209.5641 232.6338  0.99069380 14972,32293,S32293,-,32293,2007-056A,P,P,Star One C1,2007 Nov 14,S32295,STONE,BR,2007 Nov 14 2239,In Earth orbit,-,2026 May  5 ,1453.529,36077, ,36176, ,4.65, ,GEO/ID,32293,2.1861643269502204
3.0,GENERATED VIA SPACE-TRACK.ORG API,2026-05-06T10:08:52,18 SPCS,NATO 3C,1978-106A,EARTH,TEME,UTC,SGP4,2026-05-06T03:08:25.111680,0.98481093,0.00050286,9.2152,315.6806,350.1228,21.79,0,U,11115,999,65480,0.0,1.3e-07,0.0,42674.319,1462.21,36317.643,36274.725,PAYLOAD,LARGE,NATO,1978-11-19,AFETR,,5176958,322261322,0 NATO 3C,1 11115U 78106A   26126.13084620  .00000013  00000-0  00000-0 0  9996,2 11115   9.2152 315.6806 0005029 350.1228  21.7900  0.98481093654800,11115,S11115,-,11115,1978-106A,P,P,NATO 3C,1978 Nov 19,S11117,NC3A,I-NATO,1978 Nov 19 0111,In Earth orbit,-,2026 May  5 ,1462.213,36274, ,36317, ,9.22, ,GEO/ID,11115,2.186287495777081
3.0,GENERATED VIA SPACE-TRACK.ORG API,2026-05-06T14:46:56,18 SPCS,SES 7 (PROTOSTAR 2),2009-027A,EARTH,TEME,UTC,SGP4,2026-05-06T11:56:39.475968,1.0027076,1.46e-05,0.0724,80.9249,259.606,171.2497,0,U,34941,999,6221,0.0,-3.37e-06,0.0,42165.019,1436.112,35787.5,35786.269,PAYLOAD,LARGE,SES,2009-05-16,TTMTR,,5177059,322294391,0 SES 7 (PROTOSTAR 2),1 34941U 09027A   26126.49767912 -.00000337  00000-0  00000+0 0  9994,2 34941   0.0724  80.9249 0000146 259.6060 171.2497  1.00270760 62212,34941,S34941,-,34941,2009-027A,P,P,SES-7,2009 May 16,S34942,SESG/SESSAN,GI,2009 May 16 1012,In Earth orbit,-,2026 May  5 ,1436.118,35781, ,35792, ,0.09, ,GEO/S,34941,2.1865122742083076
3.0,GENERATED VIA SPACE-TRACK.ORG API,2026-05-06T02:32:52,18 SPCS,INTELSAT 4-F5,1972-041A,EARTH,TEME,UTC,SGP4,2026-05-05T14:52:22.223424,1.00118033,0.00022907,5.8357,287.2344,308.4246,51.4754,0,U,6052,999,4623,0.0,1.26e-06,0.0,42207.89,1438.302,35839.423,35820.086,PAYLOAD,MEDIUM,ITSO,1972-06-13,AFETR,,5176277,322211522,0 INTELSAT 4-F5,1 06052U 72041A   26125.61970166  .00000126  00000-0  00000-0 0  9998,2 06052   5.8357 287.2344 0002291 308.4246  51.4754  1.00118033 46232,6052,S06052,-,6052,1972-041A,P,P,INTELSAT IV F5,1972 Jun 13,S06058,SESINTU,US,1972 Jun 13 2218,In Earth orbit,-,2026 May  4 ,1438.308,35820, ,35839, ,5.84, ,GEO/ID,6052,2.198932678894833
